NORAD_CAT_ID,OBJECT_NAME,OBJECT_TYPE,EPOCH,MEAN_MOTION,ECCENTRICITY,INCLINATION,RA_OF_ASC_NODE,ARG_OF_PERICENTER,MEAN_ANOMALY,BSTAR,MEAN_MOTION_DOT,MEAN_MOTION_DDOT,TLE_LINE0,TLE_LINE1,TLE_LINE2,SEMIMAJOR_AXIS,PERIOD,APOGEE,PERIGEE,DECAYED
53848.0,STARLINK-4780,PAYLOAD,2024-03-24 05:15:46,15.0885401,0.0001295,53.2156,265.7275,71.4222,288.6911,0.00013388,1.844e-05,0.0,0 STARLINK-4780,1 53848U 22114AG  24084.21929136  .00001844  00000-0  13388-3 0  9992,2 53848  53.2156 265.7275 0001295  71.4222 288.6911 15.08854010 84426,6917.838,95.437,540.598,538.807,0.0
53848.0,STARLINK-4780,PAYLOAD,2024-03-24 11:37:20,15.08841089,0.000206,53.2161,264.538,83.4649,276.6578,0.00010921,1.45e-05,0.0,0 STARLINK-4780,1 53848U 22114AG  24084.48426116  .00001450  00000-0  10921-3 0  9994,2 53848  53.2161 264.5380 0002060  83.4649 276.6578 15.08841089 84465,6917.877,95.437,541.167,538.317,0.0
53848.0,STARLINK-4780,PAYLOAD,2024-03-24 19:34:15,15.08849431,0.000134,53.2165,263.0506,88.2438,271.8708,0.000186,2.674e-05,0.0,0 STARLINK-4780,1 53848U 22114AG  24084.81545663  .00002674  00000-0  18600-3 0  9991,2 53848  53.2165 263.0506 0001340  88.2438 271.8708 15.08849431 85059,6917.852,95.437,540.644,538.79,0.0
53848.0,STARLINK-4780,PAYLOAD,2024-03-25 05:06:33,15.0885242,0.0001282,53.2163,261.268,85.7977,274.3161,0.00020621,2.997e-05,0.0,0 STARLINK-4780,1 53848U 22114AG  24085.21289050  .00002997  00000-0  20621-3 0  9995,2 53848  53.2163 261.2680 0001282  85.7977 274.3161 15.08852420 84574,6917.842,95.437,540.594,538.821,0.0
53848.0,STARLINK-4780,PAYLOAD,2024-03-25 11:28:08,15.0882134,0.0001596,53.2157,260.0747,109.5996,250.5168,-0.00023478,-4.021e-05,0.0,0 STARLINK-4780,1 53848U 22114AG  24085.47787181 -.00004021  00000-0 -23478-3 0  9996,2 53848  53.2157 260.0747 0001596 109.5996 250.5168 15.08821340 84617,6917.937,95.439,540.907,538.698,0.0
53848.0,STARLINK-4780,PAYLOAD,2024-03-25 17:49:40,15.08824884,0.0001393,53.2148,258.8875,96.6267,263.4884,-0.00010391,-1.941e-05,0.0,0 STARLINK-4780,1 53848U 22114AG  24085.74283256 -.00001941  00000-0 -10391-3 0  9998,2 53848  53.2148 258.8875 0001393  96.6267 263.4884 15.08824884 85194,6917.927,95.439,540.755,538.828,0.0
53848.0,STARLINK-4780,PAYLOAD,2024-03-26 04:57:22,15.08835344,0.0001622,53.2173,256.8046,95.4459,264.6718,-8.1343e-06,-4.17e-06,0.0,0 STARLINK-4780,1 53848U 22114AG  24086.20651139 -.00000417  00000-0 -81343-5 0  9993,2 53848  53.2173 256.8046 0001622  95.4459 264.6718 15.08835344 84725,6917.895,95.438,540.882,538.638,0.0
53848.0,STARLINK-4780,PAYLOAD,2024-03-26 17:40:28,15.08833547,0.0001328,53.2171,254.4255,99.6078,260.5065,0.00027702,4.123e-05,0.0,0 STARLINK-4780,1 53848U 22114AG  24086.73643584  .00004123  00000-0  27702-3 0  9999,2 53848  53.2171 254.4255 0001328  99.6078 260.5065 15.08833547 85347,6917.9,95.438,540.684,538.846,0.0
53848.0,STARLINK-4780,PAYLOAD,2024-03-27 11:09:42,15.08829934,0.0001658,53.2171,251.1546,104.7956,255.322,0.00061026,9.435e-05,0.0,0 STARLINK-4780,1 53848U 22114AG  24087.46508098  .00009435  00000-0  61026-3 0  9998,2 53848  53.2171 251.1546 0001658 104.7956 255.3220 15.08829934 84915,6917.911,95.438,540.923,538.629,0.0
53848.0,STARLINK-4780,PAYLOAD,2024-03-27 14:20:27,15.08866461,0.0001798,53.2172,250.5608,93.198,266.9218,-0.00056243,-9.235e-05,0.0,0 STARLINK-4780,1 53848U 22114AG  24087.59753686 -.00009235  00000-0 -56243-3 0  9992,2 53848  53.2172 250.5608 0001798  93.1980 266.9218 15.08866461 85474,6917.8,95.436,540.908,538.421,0.0
53848.0,STARLINK-4780,PAYLOAD,2024-03-27 17:31:13,15.08875685,0.0001519,53.2167,249.9661,95.4911,264.6254,0.00090364,0.00014137,0.0,0 STARLINK-4780,1 53848U 22114AG  24087.73001799  .00014137  00000-0  90364-3 0  9996,2 53848  53.2167 249.9661 0001519  95.4911 264.6254 15.08875685 84954,6917.771,95.435,540.687,538.586,0.0
53848.0,STARLINK-4780,PAYLOAD,2024-03-28 11:00:27,15.08868323,6.12e-05,53.2147,246.6967,32.3593,327.7437,0.00048094,7.381e-05,0.0,0 STARLINK-4780,1 53848U 22114AG  24088.45865466  .00007381  00000-0  48094-3 0  9991,2 53848  53.2147 246.6967 0000612  32.3593 327.7437 15.08868323 85602,6917.794,95.436,540.082,539.235,0.0
53848.0,STARLINK-4780,PAYLOAD,2024-03-28 17:22:01,15.0882952,3.66e-05,53.2177,245.5052,80.6472,279.4562,-0.00036637,-6.112e-05,0.0,0 STARLINK-4780,1 53848U 22114AG  24088.72362339 -.00006112  00000-0 -36637-3 0  9995,2 53848  53.2177 245.5052 0000366  80.6472 279.4562 15.08829520 85109,6917.912,95.438,540.031,539.524,0.0
53848.0,STARLINK-4780,PAYLOAD,2024-03-29 10:51:15,15.08829527,1.74e-05,53.2166,242.2325,39.8629,320.2376,-0.0002128,-3.671e-05,0.0,0 STARLINK-4780,1 53848U 22114AG  24089.45226615 -.00003671  00000-0 -21280-3 0  9997,2 53848  53.2166 242.2325 0000174  39.8629 320.2376 15.08829527 85757,6917.912,95.438,539.898,539.657,0.0
53848.0,STARLINK-4780,PAYLOAD,2024-03-29 17:12:48,15.08833554,5.91e-05,53.2181,241.0467,91.3355,268.7704,-5.7281e-05,-1.199e-05,0.0,0 STARLINK-4780,1 53848U 22114AG  24089.71722738 -.00001199  00000-0 -57281-4 0  9997,2 53848  53.2181 241.0467 0000591  91.3355 268.7704 15.08833554 85251,6917.9,95.438,540.174,539.356,0.0
53848.0,STARLINK-4780,PAYLOAD,2024-03-30 13:52:50,15.08832447,5.38e-05,53.2173,237.1813,78.7258,281.3795,0.00035137,5.308e-05,0.0,0 STARLINK-4780,1 53848U 22114AG  24090.57835714  .00005308  00000-0  35137-3 0  9991,2 53848  53.2173 237.1813 0000538  78.7258 281.3795 15.08832447 85920,6917.903,95.438,540.141,539.396,0.0
53848.0,STARLINK-4780,PAYLOAD,2024-03-31 02:35:54,15.08855132,8.49e-05,53.2185,234.8026,82.2195,277.8894,0.00074172,0.00011541,0.0,0 STARLINK-4780,1 53848U 22114AG  24091.10827329  .00011541  00000-0  74172-3 0  9992,2 53848  53.2185 234.8026 0000849  82.2195 277.8894 15.08855132 85463,6917.834,95.437,540.286,539.112,0.0
53848.0,STARLINK-4780,PAYLOAD,2024-03-31 08:57:27,15.08849467,0.0001977,53.2163,233.6141,86.9298,273.1921,0.00062611,9.693e-05,0.0,0 STARLINK-4780,1 53848U 22114AG  24091.37323718  .00009693  00000-0  62611-3 0  9994,2 53848  53.2163 233.6141 0001977  86.9298 273.1921 15.08849467 85501,6917.851,95.437,541.084,538.349,0.0
53848.0,STARLINK-4780,PAYLOAD,2024-03-31 13:43:37,15.08841474,0.0001213,53.2165,232.7211,81.4829,278.6301,0.00019043,2.744e-05,0.0,0 STARLINK-4780,1 53848U 22114AG  24091.57195617  .00002744  00000-0  19043-3 0  9992,2 53848  53.2165 232.7211 0001213  81.4829 278.6301 15.08841474 86079,6917.876,95.437,540.58,538.902,0.0
53848.0,STARLINK-4780,PAYLOAD,2024-03-31 16:54:23,15.08841211,0.0001438,53.2173,232.127,87.5844,272.5313,0.00024376,3.594e-05,0.0,0 STARLINK-4780,1 53848U 22114AG  24091.70443724  .00003594  00000-0  24376-3 0  9991,2 53848  53.2173 232.1270 0001438  87.5844 272.5313 15.08841211 85557,6917.877,95.437,540.736,538.747,0.0
53848.0,STARLINK-4780,PAYLOAD,2024-04-01 15:09:47,15.08840821,0.0001137,53.2165,227.9623,100.1868,259.9252,0.00010215,1.338e-05,0.0,0 STARLINK-4780,1 53848U 22114AG  24092.63179717  .00001338  00000-0  10215-3 0  9993,2 53848  53.2165 227.9623 0001137 100.1868 259.9252 15.08840821 86239,6917.878,95.438,540.529,538.956,0.0
53848.0,STARLINK-4780,PAYLOAD,2024-04-01 18:20:33,15.08843903,9.33e-05,53.216,227.3664,94.9814,265.1285,0.00011503,1.544e-05,0.0,0 STARLINK-4780,1 53848U 22114AG  24092.76427606  .00001544  00000-0  11503-3 0  9990,2 53848  53.2160 227.3664 0000933  94.9814 265.1285 15.08843903 85718,6917.868,95.437,540.379,539.088,0.0
53848.0,STARLINK-4780,PAYLOAD,2024-04-02 08:39:02,15.08837343,0.0001167,53.2176,224.6923,99.9579,260.1544,0.00017604,2.515e-05,0.0,0 STARLINK-4780,1 53848U 22114AG  24093.36044043  .00002515  00000-0  17604-3 0  9994,2 53848  53.2176 224.6923 0001167  99.9579 260.1544 15.08837343 85800,6917.889,95.438,540.561,538.946,0.0
53848.0,STARLINK-4780,PAYLOAD,2024-04-02 15:00:34,15.08839119,0.0001382,53.217,223.5028,98.4637,261.6511,0.00010807,1.432e-05,0.0,0 STARLINK-4780,1 53848U 22114AG  24093.62540183  .00001432  00000-0  10807-3 0  9994,2 53848  53.2170 223.5028 0001382  98.4637 261.6511 15.08839119 86383,6917.883,95.438,540.704,538.792,0.0
53848.0,STARLINK-4780,PAYLOAD,2024-04-03 14:51:21,15.08838329,0.0001042,53.2154,219.0416,98.1574,261.9537,0.00011893,1.605e-05,0.0,0 STARLINK-4780,1 53848U 22114AG  24094.61900051  .00001605  00000-0  11893-3 0  9996,2 53848  53.2154 219.0416 0001042  98.1574 261.9537 15.08838329 86536,6917.885,95.438,540.471,539.03,0.0
53848.0,STARLINK-4780,PAYLOAD,2024-04-03 18:02:07,15.0884284,0.0001172,53.2165,218.4463,97.7889,262.3237,0.00012177,1.651e-05,0.0,0 STARLINK-4780,1 53848U 22114AG  24094.75147825  .00001651  00000-0  12177-3 0  9990,2 53848  53.2165 218.4463 0001172  97.7889 262.3237 15.08842840 86019,6917.872,95.437,540.547,538.926,0.0
53848.0,STARLINK-4780,PAYLOAD,2024-04-04 13:06:45,15.08834247,0.0001207,53.217,214.878,102.9741,257.1386,8.3357e-05,1.039e-05,0.0,0 STARLINK-4780,1 53848U 22114AG  24095.54636288  .00001039  00000-0  83357-4 0  9993,2 53848  53.2170 214.8780 0001207 102.9741 257.1386 15.08834247 86134,6917.898,95.438,540.598,538.928,0.0
53848.0,STARLINK-4780,PAYLOAD,2024-04-04 14:42:08,15.08836463,0.0001116,53.2161,214.5796,105.5134,254.5981,9.7417e-05,1.263e-05,0.0,0 STARLINK-4780,1 53848U 22114AG  24095.61260073  .00001263  00000-0  97417-4 0  9997,2 53848  53.2161 214.5796 0001116 105.5134 254.5981 15.08836463 86686,6917.891,95.438,540.528,538.984,0.0
53848.0,STARLINK-4780,PAYLOAD,2024-04-05 12:57:31,15.0886413,0.0001134,53.2161,210.415,98.5436,261.5685,-0.00014445,-2.588e-05,0.0,0 STARLINK-4780,1 53848U 22114AG  24096.53994435 -.00002588  00000-0 -14445-3 0  9997,2 53848  53.2161 210.4150 0001134  98.5436 261.5685 15.08864130 86288,6917.807,95.436,540.456,538.887,0.0
53848.0,STARLINK-4780,PAYLOAD,2024-04-05 14:32:54,15.08847233,8.12e-05,53.2163,210.122,98.7022,261.4062,0.00019605,2.834e-05,0.0,0 STARLINK-4780,1 53848U 22114AG  24096.60619064  .00002834  00000-0  19605-3 0  9992,2 53848  53.2163 210.1220 0000812  98.7022 261.4062 15.08847233 86834,6917.858,95.437,540.285,539.162,0.0
